COSMOS 1933             
1 18958U 88020A   26036.75046732  .00006836  00000+0  33761-3 0  9995
2 18958  82.5123 282.5110 0003357 333.8941  26.2123 15.17709137 45389
SL-3 R/B                
1 19046U 88032B   26036.86385242  .00009026  00000+0  42469-3 0  9990
2 19046  97.5150  20.2497 0025820 349.5439  10.5255 15.19492605 47277
SL-16 R/B               
1 19120U 88039B   26036.70836329 -.00000031  00000+0  80734-5 0  9997
2 19120  71.0150 136.1744 0020806  23.3344 336.8721 14.19611702953841
COSMOS 1953             
1 19210U 88050A   26036.80301129  .00014944  00000+0  54696-3 0  9999
2 19210  82.5091 190.2942 0010537 233.8977 126.1287 15.27870480 32916
SL-8 R/B                
1 19257U 88053B   26036.82340007  .00000386  00000+0  13344-3 0  9993
2 19257  74.0476 171.1975 0020271 356.5836 113.6944 14.38896610972016
COSMOS 1975             
1 19573U 88093A   26036.76266720  .00012512  00000+0  46305-3 0  9997
2 19573  82.5226 149.7105 0010423 283.9424  76.0656 15.27501524 14536
SL-14 R/B               
1 19574U 88093B   26036.61289868  .00000633  00000+0  70026-4 0  9999
2 19574  82.5282  72.1644 0021700 140.9919 336.8909 14.85621203996275
SL-16 R/B               
1 19650U 88102B   26036.76598907  .00000050  00000+0  49361-4 0  9999
2 19650  70.9969 218.6636 0012283  54.3449 305.8815 14.16146197922373
INTERCOSMOS 24          
1 20261U 89080A   26036.71377106  .00000747  00000+0  21622-3 0  9998
2 20261  82.6070 125.2155 1188223   7.0682 354.5605 12.59514881662775
SL-14 R/B               
1 20262U 89080C   26036.78888263  .00000519  00000+0  15773-3 0  9994
2 20262  82.5940 193.6657 1229432 257.7039  88.4039 12.50456002656166
DELTA 1 R/B             
1 20323U 89089B   26036.61555204  .00000594  00000+0  15590-3 0  9999
2 20323  97.0727 249.1506 0068029 223.2280 136.3567 14.50636099891085
ARIANE 40 R/B           
1 20443U 90005H   26036.77790591  .00000416  00000+0  14606-3 0  9999
2 20443  98.3152  98.3790 0009026 304.3199  55.7135 14.39849091888216
