CCSDS_OMM_VERS = 2.0
CREATION_DATE  = 
ORIGINATOR     = 

OBJECT_NAME    = COSMOS 1933
OBJECT_ID      = 1988-020A
CENTER_NAME    = EARTH
REF_FRAME      = TEME
TIME_SYSTEM    = UTC
MEAN_ELEMENT_THEORY = SGP/SGP4

EPOCH          = 2026-02-05T18:00:40.376448
MEAN_MOTION    = 15.17709137
ECCENTRICITY   = .0003357
INCLINATION    = 82.5123
RA_OF_ASC_NODE = 282.5110
ARG_OF_PERICENTER = 333.8941
MEAN_ANOMALY   = 26.2123

EPHEMERIS_TYPE = 0
CLASSIFICATION_TYPE = U
NORAD_CAT_ID   = 18958
ELEMENT_SET_NO = 999
REV_AT_EPOCH   = 4538
BSTAR          = .33761E-3
MEAN_MOTION_DOT = .6836E-4
MEAN_MOTION_DDOT = 0

CCSDS_OMM_VERS = 2.0
CREATION_DATE  = 
ORIGINATOR     = 

OBJECT_NAME    = SL-3 R/B
OBJECT_ID      = 1988-032B
CENTER_NAME    = EARTH
REF_FRAME      = TEME
TIME_SYSTEM    = UTC
MEAN_ELEMENT_THEORY = SGP/SGP4

EPOCH          = 2026-02-05T20:43:56.849088
MEAN_MOTION    = 15.19492605
ECCENTRICITY   = .002582
INCLINATION    = 97.5150
RA_OF_ASC_NODE = 20.2497
ARG_OF_PERICENTER = 349.5439
MEAN_ANOMALY   = 10.5255

EPHEMERIS_TYPE = 0
CLASSIFICATION_TYPE = U
NORAD_CAT_ID   = 19046
ELEMENT_SET_NO = 999
REV_AT_EPOCH   = 4727
BSTAR          = .42469E-3
MEAN_MOTION_DOT = .9026E-4
MEAN_MOTION_DDOT = 0

CCSDS_OMM_VERS = 2.0
CREATION_DATE  = 
ORIGINATOR     = 

OBJECT_NAME    = SL-16 R/B
OBJECT_ID      = 1988-039B
CENTER_NAME    = EARTH
REF_FRAME      = TEME
TIME_SYSTEM    = UTC
MEAN_ELEMENT_THEORY = SGP/SGP4

EPOCH          = 2026-02-05T17:00:02.588256
MEAN_MOTION    = 14.19611702
ECCENTRICITY   = .0020806
INCLINATION    = 71.0150
RA_OF_ASC_NODE = 136.1744
ARG_OF_PERICENTER = 23.3344
MEAN_ANOMALY   = 336.8721

EPHEMERIS_TYPE = 0
CLASSIFICATION_TYPE = U
NORAD_CAT_ID   = 19120
ELEMENT_SET_NO = 999
REV_AT_EPOCH   = 95384
BSTAR          = .80734E-5
MEAN_MOTION_DOT = -.31E-6
MEAN_MOTION_DDOT = 0

CCSDS_OMM_VERS = 2.0
CREATION_DATE  = 
ORIGINATOR     = 

OBJECT_NAME    = COSMOS 1953
OBJECT_ID      = 1988-050A
CENTER_NAME    = EARTH
REF_FRAME      = TEME
TIME_SYSTEM    = UTC
MEAN_ELEMENT_THEORY = SGP/SGP4

EPOCH          = 2026-02-05T19:16:20.175456
MEAN_MOTION    = 15.27870480
ECCENTRICITY   = .0010537
INCLINATION    = 82.5091
RA_OF_ASC_NODE = 190.2942
ARG_OF_PERICENTER = 233.8977
MEAN_ANOMALY   = 126.1287

EPHEMERIS_TYPE = 0
CLASSIFICATION_TYPE = U
NORAD_CAT_ID   = 19210
ELEMENT_SET_NO = 999
REV_AT_EPOCH   = 3291
BSTAR          = .54696E-3
MEAN_MOTION_DOT = .14944E-3
MEAN_MOTION_DDOT = 0

CCSDS_OMM_VERS = 2.0
CREATION_DATE  = 
ORIGINATOR     = 

OBJECT_NAME    = SL-8 R/B
OBJECT_ID      = 1988-053B
CENTER_NAME    = EARTH
REF_FRAME      = TEME
TIME_SYSTEM    = UTC
MEAN_ELEMENT_THEORY = SGP/SGP4

EPOCH          = 2026-02-05T19:45:41.766048
MEAN_MOTION    = 14.38896610
ECCENTRICITY   = .0020271
INCLINATION    = 74.0476
RA_OF_ASC_NODE = 171.1975
ARG_OF_PERICENTER = 356.5836
MEAN_ANOMALY   = 113.6944

EPHEMERIS_TYPE = 0
CLASSIFICATION_TYPE = U
NORAD_CAT_ID   = 19257
ELEMENT_SET_NO = 999
REV_AT_EPOCH   = 97201
BSTAR          = .13344E-3
MEAN_MOTION_DOT = .386E-5
MEAN_MOTION_DDOT = 0

CCSDS_OMM_VERS = 2.0
CREATION_DATE  = 
ORIGINATOR     = 

OBJECT_NAME    = COSMOS 1975
OBJECT_ID      = 1988-093A
CENTER_NAME    = EARTH
REF_FRAME      = TEME
TIME_SYSTEM    = UTC
MEAN_ELEMENT_THEORY = SGP/SGP4

EPOCH          = 2026-02-05T18:18:14.446080
MEAN_MOTION    = 15.27501524
ECCENTRICITY   = .0010423
INCLINATION    = 82.5226
RA_OF_ASC_NODE = 149.7105
ARG_OF_PERICENTER = 283.9424
MEAN_ANOMALY   = 76.0656

EPHEMERIS_TYPE = 0
CLASSIFICATION_TYPE = U
NORAD_CAT_ID   = 19573
ELEMENT_SET_NO = 999
REV_AT_EPOCH   = 1453
BSTAR          = .46305E-3
MEAN_MOTION_DOT = .12512E-3
MEAN_MOTION_DDOT = 0

CCSDS_OMM_VERS = 2.0
CREATION_DATE  = 
ORIGINATOR     = 

OBJECT_NAME    = SL-14 R/B
OBJECT_ID      = 1988-093B
CENTER_NAME    = EARTH
REF_FRAME      = TEME
TIME_SYSTEM    = UTC
MEAN_ELEMENT_THEORY = SGP/SGP4

EPOCH          = 2026-02-05T14:42:34.445952
MEAN_MOTION    = 14.85621203
ECCENTRICITY   = .00217
INCLINATION    = 82.5282
RA_OF_ASC_NODE = 72.1644
ARG_OF_PERICENTER = 140.9919
MEAN_ANOMALY   = 336.8909

EPHEMERIS_TYPE = 0
CLASSIFICATION_TYPE = U
NORAD_CAT_ID   = 19574
ELEMENT_SET_NO = 999
REV_AT_EPOCH   = 99627
BSTAR          = .70026E-4
MEAN_MOTION_DOT = .633E-5
MEAN_MOTION_DDOT = 0

CCSDS_OMM_VERS = 2.0
CREATION_DATE  = 
ORIGINATOR     = 

OBJECT_NAME    = SL-16 R/B
OBJECT_ID      = 1988-102B
CENTER_NAME    = EARTH
REF_FRAME      = TEME
TIME_SYSTEM    = UTC
MEAN_ELEMENT_THEORY = SGP/SGP4

EPOCH          = 2026-02-05T18:23:01.455648
MEAN_MOTION    = 14.16146197
ECCENTRICITY   = .0012283
INCLINATION    = 70.9969
RA_OF_ASC_NODE = 218.6636
ARG_OF_PERICENTER = 54.3449
MEAN_ANOMALY   = 305.8815

EPHEMERIS_TYPE = 0
CLASSIFICATION_TYPE = U
NORAD_CAT_ID   = 19650
ELEMENT_SET_NO = 999
REV_AT_EPOCH   = 92237
BSTAR          = .49361E-4
MEAN_MOTION_DOT = .5E-6
MEAN_MOTION_DDOT = 0

CCSDS_OMM_VERS = 2.0
CREATION_DATE  = 
ORIGINATOR     = 

OBJECT_NAME    = INTERCOSMOS 24
OBJECT_ID      = 1989-080A
CENTER_NAME    = EARTH
REF_FRAME      = TEME
TIME_SYSTEM    = UTC
MEAN_ELEMENT_THEORY = SGP/SGP4

EPOCH          = 2026-02-05T17:07:49.819584
MEAN_MOTION    = 12.59514881
ECCENTRICITY   = .1188223
INCLINATION    = 82.6070
RA_OF_ASC_NODE = 125.2155
ARG_OF_PERICENTER = 7.0682
MEAN_ANOMALY   = 354.5605

EPHEMERIS_TYPE = 0
CLASSIFICATION_TYPE = U
NORAD_CAT_ID   = 20261
ELEMENT_SET_NO = 999
REV_AT_EPOCH   = 66277
BSTAR          = .21622E-3
MEAN_MOTION_DOT = .747E-5
MEAN_MOTION_DDOT = 0

CCSDS_OMM_VERS = 2.0
CREATION_DATE  = 
ORIGINATOR     = 

OBJECT_NAME    = SL-14 R/B
OBJECT_ID      = 1989-080C
CENTER_NAME    = EARTH
REF_FRAME      = TEME
TIME_SYSTEM    = UTC
MEAN_ELEMENT_THEORY = SGP/SGP4

EPOCH          = 2026-02-05T18:55:59.459232
MEAN_MOTION    = 12.50456002
ECCENTRICITY   = .1229432
INCLINATION    = 82.5940
RA_OF_ASC_NODE = 193.6657
ARG_OF_PERICENTER = 257.7039
MEAN_ANOMALY   = 88.4039

EPHEMERIS_TYPE = 0
CLASSIFICATION_TYPE = U
NORAD_CAT_ID   = 20262
ELEMENT_SET_NO = 999
REV_AT_EPOCH   = 65616
BSTAR          = .15773E-3
MEAN_MOTION_DOT = .519E-5
MEAN_MOTION_DDOT = 0

CCSDS_OMM_VERS = 2.0
CREATION_DATE  = 
ORIGINATOR     = 

OBJECT_NAME    = DELTA 1 R/B
OBJECT_ID      = 1989-089B
CENTER_NAME    = EARTH
REF_FRAME      = TEME
TIME_SYSTEM    = UTC
MEAN_ELEMENT_THEORY = SGP/SGP4

EPOCH          = 2026-02-05T14:46:23.696256
MEAN_MOTION    = 14.50636099
ECCENTRICITY   = .0068029
INCLINATION    = 97.0727
RA_OF_ASC_NODE = 249.1506
ARG_OF_PERICENTER = 223.2280
MEAN_ANOMALY   = 136.3567

EPHEMERIS_TYPE = 0
CLASSIFICATION_TYPE = U
NORAD_CAT_ID   = 20323
ELEMENT_SET_NO = 999
REV_AT_EPOCH   = 89108
BSTAR          = .1559E-3
MEAN_MOTION_DOT = .594E-5
MEAN_MOTION_DDOT = 0

CCSDS_OMM_VERS = 2.0
CREATION_DATE  = 
ORIGINATOR     = 

OBJECT_NAME    = ARIANE 40 R/B
OBJECT_ID      = 1990-005H
CENTER_NAME    = EARTH
REF_FRAME      = TEME
TIME_SYSTEM    = UTC
MEAN_ELEMENT_THEORY = SGP/SGP4

EPOCH          = 2026-02-05T18:40:11.070624
MEAN_MOTION    = 14.39849091
ECCENTRICITY   = .0009026
INCLINATION    = 98.3152
RA_OF_ASC_NODE = 98.3790
ARG_OF_PERICENTER = 304.3199
MEAN_ANOMALY   = 55.7135

EPHEMERIS_TYPE = 0
CLASSIFICATION_TYPE = U
NORAD_CAT_ID   = 20443
ELEMENT_SET_NO = 999
REV_AT_EPOCH   = 88821
BSTAR          = .14606E-3
MEAN_MOTION_DOT = .416E-5
MEAN_MOTION_DDOT = 0

